OBJECT_NAME,OBJECT_ID,EPOCH,MEAN_MOTION,ECCENTRICITY,INCLINATION,RA_OF_ASC_NODE,ARG_OF_PERICENTER,MEAN_ANOMALY,EPHEMERIS_TYPE,CLASSIFICATION_TYPE,NORAD_CAT_ID,ELEMENT_SET_NO,REV_AT_EPOCH,BSTAR,MEAN_MOTION_DOT,MEAN_MOTION_DDOT
STARLINK-31068,2023-203F,2026-06-13T11:58:15.236544,15.27581356,.00025944,43.0092,246.0665,282.2647,77.7915,0,U,58623,999,13821,.34684027E-4,.692E-5,0
STARLINK-31129,2023-203G,2026-06-13T11:54:33.331968,15.27662062,.00006841,43.0050,246.0442,219.2137,140.8665,0,U,58624,999,13821,.60514479E-3,.16469E-3,0
STARLINK-30774,2023-203H,2026-06-13T11:48:59.846112,15.27577472,.00019175,43.0032,246.0081,276.9103,83.1530,0,U,58625,999,13821,.33656711E-4,.664E-5,0
STARLINK-31086,2023-203J,2026-06-13T12:46:11.496000,15.27545854,.00010223,42.9969,245.4480,280.2380,79.8356,0,U,58626,999,13822,.31458792E-3,.8396E-4,0
STARLINK-31065,2023-203K,2026-06-12T22:55:23.585376,15.27585007,.00000313,42.9943,248.8674,13.4621,346.6231,0,U,58627,999,13813,.7114291E-4,.1697E-4,0
STARLINK-31092,2023-203L,2026-06-13T16:25:55.391232,15.27576693,.0001521,42.9997,244.8823,315.8649,44.2081,0,U,58628,999,13824,.3505E-4,.702E-5,0
STARLINK-31091,2023-203M,2026-06-13T12:16:03.063648,15.27582054,.00009594,43.0059,249.5938,266.8699,93.2043,0,U,58629,999,13817,.31468754E-4,.604E-5,0
STARLINK-31084,2023-203N,2026-06-13T12:10:30.243072,15.27582078,.00034649,43.0183,249.5745,287.5253,72.5220,0,U,58630,999,13817,.57671386E-4,.1324E-4,0
STARLINK-31064,2023-203P,2026-06-10T13:55:41.273184,15.27583716,.00006559,43.0076,266.2913,280.0729,80.0049,0,U,58631,999,13889,.82054198E-4,.1997E-4,0
STARLINK-31081,2023-203Q,2026-06-12T23:24:17.803584,15.27581653,.00017877,43.0036,252.4466,274.5236,85.5412,0,U,58632,999,13932,.48287086E-4,.1067E-4,0
STARLINK-31022,2023-203R,2026-06-13T17:26:16.321056,15.27580769,.0001081,43.0018,248.6199,273.3758,86.6970,0,U,58633,999,13943,.41738E-4,.887E-5,0
STARLINK-31025,2023-203S,2026-06-13T16:01:49.298016,15.27590342,.000143,43.0057,244.6690,262.9412,97.1277,0,U,58634,999,13947,.93368E-4,.2309E-4,0
STARLINK-31018,2023-203T,2026-06-13T17:08:28.520736,15.27585654,.0000766,43.0064,245.0887,319.3605,40.7189,0,U,58635,999,13947,.30302E-4,.572E-5,0
STARLINK-31008,2023-203U,2026-06-12T22:22:18.811488,15.27586909,.0000713,43.0052,249.5471,282.3493,77.7279,0,U,58636,999,13935,.15689675E-3,.4059E-4,0
STARLINK-31077,2023-203V,2026-06-12T22:13:03.012384,15.27580594,.00010039,43.0043,249.5018,266.0634,94.0103,0,U,58637,999,13935,.17132119E-4,.209E-5,0
STARLINK-31078,2023-203W,2026-06-13T16:57:22.153824,15.27582442,.000043,42.9982,245.0384,355.1285,4.9562,0,U,58638,999,13824,-.32114E-3,-.9089E-4,0
STARLINK-31070,2023-203X,2026-06-12T22:27:52.555680,15.27571907,.00009632,43.0003,249.5729,280.4156,79.6587,0,U,58639,999,13812,.10073153E-4,.15E-6,0
STARLINK-31090,2023-203Y,2026-06-13T12:03:07.426656,15.27595573,.0001386,42.9988,238.3027,282.8356,77.2341,0,U,58640,999,13831,.10880829E-3,.2735E-4,0
STARLINK-31113,2023-211B,2026-06-13T13:58:35.952384,15.27578484,.0000962,43.0049,263.4309,272.4713,87.6028,0,U,58668,999,13713,.8737E-5,-.22E-6,0
STARLINK-31128,2023-211C,2026-06-12T00:42:54.115200,15.27580418,.00010118,43.0106,272.4160,261.0892,98.9845,0,U,58669,999,13689,-.11590605E-4,-.581E-5,0
STARLINK-31083,2023-211D,2026-06-13T17:01:20.883072,15.27627106,.0001135,43.0036,262.6609,284.4791,75.5935,0,U,58670,999,13715,-.30874E-3,-.876E-4,0
STARLINK-30828,2023-211E,2026-06-13T13:03:17.986752,15.27578698,.00017309,43.0035,264.0063,287.3585,72.7077,0,U,58671,999,13712,.16909869E-4,.203E-5,0
STARLINK-31104,2023-211F,2026-06-13T00:00:02.000160,15.51670154,.0021743,42.9919,253.9576,17.6470,247.2533,0,U,58672,999,577,.53513605E-3,.32744E-3,0
STARLINK-31131,2023-211G,2026-06-12T12:54:09.776160,15.27588768,.00028605,43.0035,258.8318,278.4189,81.6338,0,U,58673,999,13837,.6075125E-4,.141E-4,0
STARLINK-31124,2023-211H,2026-06-13T17:12:27.457344,15.27573521,.0001987,43.0021,262.7205,252.8501,107.2133,0,U,58674,999,13715,.70497E-4,.1678E-4,0
STARLINK-31126,2023-211J,2026-06-13T13:41:56.699232,15.27573161,.000187,43.0027,263.3339,274.2530,85.8108,0,U,58675,999,13713,.54365E-4,.1234E-4,0
STARLINK-31066,2023-211K,2026-06-12T23:25:14.562336,15.27578881,.00014432,43.0062,52.9343,271.4996,88.5690,0,U,58676,999,13660,.32582465E-4,.634E-5,0
STARLINK-31058,2023-211L,2026-06-13T17:16:09.227136,15.27578768,.0001631,43.0030,262.7436,275.2078,84.8588,0,U,58677,999,13715,.17856E-5,-.213E-5,0
STARLINK-31125,2023-211M,2026-06-13T13:07:00.023520,15.27580675,.00019834,43.0027,264.0202,268.9147,91.1477,0,U,58678,999,13829,.30556605E-4,.579E-5,0
STARLINK-31110,2023-211N,2026-06-13T00:06:00.104832,15.27578154,.00005139,43.0063,266.8325,300.3469,59.7332,0,U,58679,999,13704,.20857626E-4,.312E-5,0
