STARLINK-31068          
1 58623U 23203F   26164.49878746  .00000692  00000+0  34684-4 0  9991
2 58623  43.0092 246.0665 0002594 282.2647  77.7915 15.27581356138218
STARLINK-31129          
1 58624U 23203G   26164.49621912  .00016469  00000+0  60514-3 0  9992
2 58624  43.0050 246.0442 0000684 219.2137 140.8665 15.27662062138216
STARLINK-30774          
1 58625U 23203H   26164.49235933  .00000664  00000+0  33657-4 0  9996
2 58625  43.0032 246.0081 0001917 276.9103  83.1530 15.27577472138219
STARLINK-31086          
1 58626U 23203J   26164.53207750  .00008396  00000+0  31459-3 0  9995
2 58626  42.9969 245.4480 0001022 280.2380  79.8356 15.27545854138223
STARLINK-31065          
1 58627U 23203K   26163.95513409  .00001697  00000+0  71143-4 0  9994
2 58627  42.9943 248.8674 0000031  13.4621 346.6231 15.27585007138132
STARLINK-31092          
1 58628U 23203L   26164.68466888  .00000702  00000+0  35050-4 0  9997
2 58628  42.9997 244.8823 0001521 315.8649  44.2081 15.27576693138245
STARLINK-31091          
1 58629U 23203M   26164.51114657  .00000604  00000+0  31469-4 0  9995
2 58629  43.0059 249.5938 0000959 266.8699  93.2043 15.27582054138172
STARLINK-31084          
1 58630U 23203N   26164.50729448  .00001324  00000+0  57671-4 0  9999
2 58630  43.0183 249.5745 0003464 287.5253  72.5220 15.27582078138171
STARLINK-31064          
1 58631U 23203P   26161.58033881  .00001997  00000+0  82054-4 0  9993
2 58631  43.0076 266.2913 0000655 280.0729  80.0049 15.27583716138893
STARLINK-31081          
1 58632U 23203Q   26163.97520606  .00001067  00000+0  48287-4 0  9993
2 58632  43.0036 252.4466 0001787 274.5236  85.5412 15.27581653139329
STARLINK-31022          
1 58633U 23203R   26164.72657779  .00000887  00000+0  41738-4 0  9993
2 58633  43.0018 248.6199 0001081 273.3758  86.6970 15.27580769139433
STARLINK-31025          
1 58634U 23203S   26164.66793169  .00002309  00000+0  93368-4 0  9998
2 58634  43.0057 244.6690 0001430 262.9412  97.1277 15.27590342139477
STARLINK-31018          
1 58635U 23203T   26164.71421899  .00000572  00000+0  30302-4 0  9992
2 58635  43.0064 245.0887 0000766 319.3605  40.7189 15.27585654139477
STARLINK-31008          
1 58636U 23203U   26163.93216217  .00004059  00000+0  15690-3 0  9998
2 58636  43.0052 249.5471 0000713 282.3493  77.7279 15.27586909139350
STARLINK-31077          
1 58637U 23203V   26163.92572931  .00000209  00000+0  17132-4 0  9993
2 58637  43.0043 249.5018 0001003 266.0634  94.0103 15.27580594139359
STARLINK-31078          
1 58638U 23203W   26164.70650641 -.00009089  00000+0 -32114-3 0  9999
2 58638  42.9982 245.0384 0000430 355.1285   4.9562 15.27582442138242
STARLINK-31070          
1 58639U 23203X   26163.93602495  .00000015  00000+0  10073-4 0  9997
2 58639  43.0003 249.5729 0000963 280.4156  79.6587 15.27571907138126
STARLINK-31090          
1 58640U 23203Y   26164.50216929  .00002735  00000+0  10881-3 0  9993
2 58640  42.9988 238.3027 0001386 282.8356  77.2341 15.27595573138311
STARLINK-31113          
1 58668U 23211B   26164.58236056 -.00000022  00000+0  87370-5 0  9990
2 58668  43.0049 263.4309 0000962 272.4713  87.6028 15.27578484137132
STARLINK-31128          
1 58669U 23211C   26163.02979300 -.00000581  00000+0 -11591-4 0  9997
2 58669  43.0106 272.4160 0001011 261.0892  98.9845 15.27580418136894
STARLINK-31083          
1 58670U 23211D   26164.70926948 -.00008760  00000+0 -30874-3 0  9996
2 58670  43.0036 262.6609 0001135 284.4791  75.5935 15.27627106137158
STARLINK-30828          
1 58671U 23211E   26164.54395818  .00000203  00000+0  16910-4 0  9993
2 58671  43.0035 264.0063 0001730 287.3585  72.7077 15.27578698137126
STARLINK-31104          
1 58672U 23211F   26164.00002315  .00032744  00000+0  53514-3 0  9997
2 58672  42.9919 253.9576 0021743  17.6470 247.2533 15.51670154  5773
STARLINK-31131          
1 58673U 23211G   26163.53761315  .00001410  00000+0  60751-4 0  9995
2 58673  43.0035 258.8318 0002860 278.4189  81.6338 15.27588768138374
STARLINK-31124          
1 58674U 23211H   26164.71698446  .00001678  00000+0  70497-4 0  9995
2 58674  43.0021 262.7205 0001987 252.8501 107.2133 15.27573521137156
STARLINK-31126          
1 58675U 23211J   26164.57079513  .00001234  00000+0  54365-4 0  9992
2 58675  43.0027 263.3339 0001870 274.2530  85.8108 15.27573161137130
STARLINK-31066          
1 58676U 23211K   26163.97586299  .00000634  00000+0  32582-4 0  9990
2 58676  43.0062  52.9343 0001443 271.4996  88.5690 15.27578881136609
STARLINK-31058          
1 58677U 23211L   26164.71955124 -.00000213  00000+0  17856-5 0  9993
2 58677  43.0030 262.7436 0001631 275.2078  84.8588 15.27578768137151
STARLINK-31125          
1 58678U 23211M   26164.54652805  .00000579  00000+0  30557-4 0  9991
2 58678  43.0027 264.0202 0001983 268.9147  91.1477 15.27580675138294
STARLINK-31110          
1 58679U 23211N   26164.00416788  .00000312  00000+0  20858-4 0  9999
2 58679  43.0063 266.8325 0000513 300.3469  59.7332 15.27578154137048
